start=new Date('2021-12-29T00:00:00.000Z').valueOf();
sats=[{"BSTAR":"0.00005296100000","MEAN_ELEMENT_THEORY":"SGP4","ECCENTRICITY":"0.00023820","OBJECT_ID":"2020-038AT","MEAN_MOTION":"15.06393349","CENTER_NAME":"EARTH","APOAPSIS":"548.884","EPHEMERIS_TYPE":"0","GP_ID":"192673424","CLASSIFICATION_TYPE":"U","ARG_OF_PERICENTER":"68.7799","ELEMENT_SET_NO":"999","DECAY_DATE":null,"MEAN_MOTION_DDOT":"0.0000000000000","COUNTRY_CODE":"US","FILE":"3254265","SITE":"AFETR","EPOCH":"2021-12-28T22:04:31.870848","INCLINATION":"53.0542","RA_OF_ASC_NODE":"233.0104","TLE_LINE1":"1 45771U 20038AT  21362.91981332  .00000507  00000-0  52961-4 0  9996","RCS_SIZE":"LARGE","TIME_SYSTEM":"UTC","OBJECT_NAME":"STARLINK-1463","SEMIMAJOR_AXIS":"6925.369","TLE_LINE2":"2 45771  53.0542 233.0104 0002382  68.7799 291.3444 15.06393349 85877","NORAD_CAT_ID":"45771","REF_FRAME":"TEME","OBJECT_TYPE":"PAYLOAD","LAUNCH_DATE":"2020-06-13","PERIAPSIS":"545.584","PERIOD":"95.593","MEAN_MOTION_DOT":"0.00000507","REV_AT_EPOCH":"8587","MEAN_ANOMALY":"291.3444"},{"MEAN_ANOMALY":"289.0077","REV_AT_EPOCH":"8588","MEAN_MOTION_DOT":"0.00001255","PERIOD":"95.592","PERIAPSIS":"545.632","LAUNCH_DATE":"2020-06-13","OBJECT_TYPE":"PAYLOAD","REF_FRAME":"TEME","SEMIMAJOR_AXIS":"6925.358","TLE_LINE2":"2 45772  53.0519 233.0583 0002297  71.1161 289.0077 15.06396989 85889","NORAD_CAT_ID":"45772","OBJECT_NAME":"STARLINK-1470","TIME_SYSTEM":"UTC","RCS_SIZE":"LARGE","TLE_LINE1":"1 45772U 20038AU  21362.90875249  .00001255  00000-0  10313-3 0  9990","RA_OF_ASC_NODE":"233.0583","INCLINATION":"53.0519","EPOCH":"2021-12-28T21:48:36.215136","FILE":"3254265","SITE":"AFETR","COUNTRY_CODE":"US","MEAN_MOTION_DDOT":"0.0000000000000","DECAY_DATE":null,"ELEMENT_SET_NO":"999","CLASSIFICATION_TYPE":"U","ARG_OF_PERICENTER":"71.1161","GP_ID":"192672673","EPHEMERIS_TYPE":"0","CENTER_NAME":"EARTH","APOAPSIS":"548.814","OBJECT_ID":"2020-038AU","MEAN_MOTION":"15.06396989","ECCENTRICITY":"0.00022970","BSTAR":"0.00010313000000","MEAN_ELEMENT_THEORY":"SGP4"},{"PERIOD":"95.593","MEAN_MOTION_DOT":"0.00000820","LAUNCH_DATE":"2020-06-13","PERIAPSIS":"545.897","REF_FRAME":"TEME","OBJECT_TYPE":"PAYLOAD","MEAN_ANOMALY":"294.0923","REV_AT_EPOCH":"8588","INCLINATION":"53.0539","EPOCH":"2021-12-28T21:37:59.698560","TLE_LINE2":"2 45773  53.0539 233.0868 0001926  66.0267 294.0923 15.06394269 85881","SEMIMAJOR_AXIS":"6925.366","NORAD_CAT_ID":"45773","OBJECT_NAME":"STARLINK-1482","TIME_SYSTEM":"UTC","TLE_LINE1":"1 45773U 20038AV  21362.90138540  .00000820  00000-0  73929-4 0  9997","RA_OF_ASC_NODE":"233.0868","RCS_SIZE":"LARGE","MEAN_MOTION_DDOT":"0.0000000000000","DECAY_DATE":null,"FILE":"3254265","SITE":"AFETR","COUNTRY_CODE":"US","ECCENTRICITY":"0.00019260","OBJECT_ID":"2020-038AV","MEAN_MOTION":"15.06394269","BSTAR":"0.00007392900000","MEAN_ELEMENT_THEORY":"SGP4","CLASSIFICATION_TYPE":"U","ARG_OF_PERICENTER":"66.0267","ELEMENT_SET_NO":"999","GP_ID":"192672422","CENTER_NAME":"EARTH","APOAPSIS":"548.565","EPHEMERIS_TYPE":"0"},{"DECAY_DATE":null,"MEAN_MOTION_DDOT":"0.0000000000000","SITE":"AFETR","FILE":"3254265","COUNTRY_CODE":"US","ECCENTRICITY":"0.00019830","OBJECT_ID":"2020-038AW","MEAN_MOTION":"15.06405661","MEAN_ELEMENT_THEORY":"SGP4","BSTAR":"0.00027790000000","GP_ID":"192673174","CLASSIFICATION_TYPE":"U","ARG_OF_PERICENTER":"70.5930","ELEMENT_SET_NO":"999","APOAPSIS":"548.570","CENTER_NAME":"EARTH","EPHEMERIS_TYPE":"0","PERIAPSIS":"545.823","LAUNCH_DATE":"2020-06-13","PERIOD":"95.592","MEAN_MOTION_DOT":"0.00003861","REF_FRAME":"TEME","OBJECT_TYPE":"PAYLOAD","MEAN_ANOMALY":"289.5273","REV_AT_EPOCH":"8587","INCLINATION":"53.0521","EPOCH":"2021-12-28T20:55:31.581120","OBJECT_NAME":"STARLINK-1485","TIME_SYSTEM":"UTC","NORAD_CAT_ID":"45774","TLE_LINE2":"2 45774  53.0521 233.2113 0001983  70.5930 289.5273 15.06405661 85873","SEMIMAJOR_AXIS":"6925.331","TLE_LINE1":"1 45774U 20038AW  21362.87189330  .00003861  00000-0  27790-3 0  9999","RA_OF_ASC_NODE":"233.2113","RCS_SIZE":"MEDIUM"},{"CLASSIFICATION_TYPE":"U","ARG_OF_PERICENTER":"62.6286","ELEMENT_SET_NO":"999","GP_ID":"192673925","APOAPSIS":"548.743","CENTER_NAME":"EARTH","EPHEMERIS_TYPE":"0","ECCENTRICITY":"0.00022020","OBJECT_ID":"2020-038AX","MEAN_MOTION":"15.06398566","BSTAR":"0.00005411000000","MEAN_ELEMENT_THEORY":"SGP4","FILE":"3254265","SITE":"AFETR","COUNTRY_CODE":"US","MEAN_MOTION_DDOT":"0.0000000000000","DECAY_DATE":null,"NORAD_CAT_ID":"45775","TLE_LINE2":"2 45775  53.0539 233.2035 0002202  62.6286 297.4926 15.06398566 85886","SEMIMAJOR_AXIS":"6925.353","OBJECT_NAME":"STARLINK-1488","TIME_SYSTEM":"UTC","RA_OF_ASC_NODE":"233.2035","TLE_LINE1":"1 45775U 20038AX  21362.87557704  .00000524  00000-0  54110-4 0  9994","RCS_SIZE":"LARGE","INCLINATION":"53.0539","EPOCH":"2021-12-28T21:00:49.856256","MEAN_ANOMALY":"297.4926","REV_AT_EPOCH":"8588","PERIOD":"95.592","MEAN_MOTION_DOT":"0.00000524","PERIAPSIS":"545.693","LAUNCH_DATE":"2020-06-13","REF_FRAME":"TEME","OBJECT_TYPE":"PAYLOAD"},{"BSTAR":"0.00010800000000","MEAN_ELEMENT_THEORY":"SGP4","OBJECT_ID":"2020-038AY","MEAN_MOTION":"15.06403223","ECCENTRICITY":"0.00019830","EPHEMERIS_TYPE":"0","CENTER_NAME":"EARTH","APOAPSIS":"548.577","ELEMENT_SET_NO":"999","ARG_OF_PERICENTER":"70.9739","CLASSIFICATION_TYPE":"U","GP_ID":"192672173","MEAN_MOTION_DDOT":"0.0000000000000","DECAY_DATE":null,"COUNTRY_CODE":"US","SITE":"AFETR","FILE":"3254265","EPOCH":"2021-12-28T21:11:26.365920","INCLINATION":"53.0519","RCS_SIZE":"LARGE","TLE_LINE1":"1 45776U 20038AY  21362.88294405  .00001327  00000-0  10800-3 0  9991","RA_OF_ASC_NODE":"233.1660","SEMIMAJOR_AXIS":"6925.339","TLE_LINE2":"2 45776  53.0519 233.1660 0001983  70.9739 289.1465 15.06403223 85881","NORAD_CAT_ID":"45776","OBJECT_NAME":"STARLINK-1489","TIME_SYSTEM":"UTC","OBJECT_TYPE":"PAYLOAD","REF_FRAME":"TEME","MEAN_MOTION_DOT":"0.00001327","PERIOD":"95.592","PERIAPSIS":"545.830","LAUNCH_DATE":"2020-06-13","REV_AT_EPOCH":"8588","MEAN_ANOMALY":"289.1465"},{"SITE":"AFETR","FILE":"3254265","COUNTRY_CODE":"US","MEAN_MOTION_DDOT":"0.0000000000000","DECAY_DATE":null,"ELEMENT_SET_NO":"999","ARG_OF_PERICENTER":"64.1977","CLASSIFICATION_TYPE":"U","GP_ID":"192672923","EPHEMERIS_TYPE":"0","CENTER_NAME":"EARTH","APOAPSIS":"548.613","MEAN_MOTION":"15.06394860","OBJECT_ID":"2020-038AZ","ECCENTRICITY":"0.00019980","MEAN_ELEMENT_THEORY":"SGP4","BSTAR":"-0.00007121300000","MEAN_ANOMALY":"295.9218","REV_AT_EPOCH":"8588","MEAN_MOTION_DOT":"-0.00001342","PERIOD":"95.592","PERIAPSIS":"545.846","LAUNCH_DATE":"2020-06-13","OBJECT_TYPE":"PAYLOAD","REF_FRAME":"TEME","SEMIMAJOR_AXIS":"6925.364","TLE_LINE2":"2 45777  53.0533 233.1911 0001998  64.1977 295.9218 15.06394860 85889","NORAD_CAT_ID":"45777","TIME_SYSTEM":"UTC","OBJECT_NAME":"STARLINK-1490","RCS_SIZE":"LARGE","TLE_LINE1":"1 45777U 20038AZ  21362.87926027 -.00001342  00000-0 -71213-4 0  9998","RA_OF_ASC_NODE":"233.1911","INCLINATION":"53.0533","EPOCH":"2021-12-28T21:06:08.087328"},{"MEAN_ANOMALY":"289.2052","REV_AT_EPOCH":"8587","PERIAPSIS":"545.885","LAUNCH_DATE":"2020-06-13","PERIOD":"95.592","MEAN_MOTION_DOT":"0.00003516","REF_FRAME":"TEME","OBJECT_TYPE":"PAYLOAD","OBJECT_NAME":"STARLINK-1491","TIME_SYSTEM":"UTC","NORAD_CAT_ID":"45778","TLE_LINE2":"2 45778  53.0525 232.9719 0001887  70.9141 289.2052 15.06407147 85873","SEMIMAJOR_AXIS":"6925.327","TLE_LINE1":"1 45778U 20038BA  21362.92717255  .00003516  00000-0  25477-3 0  9999","RA_OF_ASC_NODE":"232.9719","RCS_SIZE":"LARGE","INCLINATION":"53.0525","EPOCH":"2021-12-28T22:15:07.708320","FILE":"3254265","SITE":"AFETR","COUNTRY_CODE":"US","DECAY_DATE":null,"MEAN_MOTION_DDOT":"0.0000000000000","GP_ID":"192673675","ARG_OF_PERICENTER":"70.9141","CLASSIFICATION_TYPE":"U","ELEMENT_SET_NO":"999","APOAPSIS":"548.498","CENTER_NAME":"EARTH","EPHEMERIS_TYPE":"0","ECCENTRICITY":"0.00018870","OBJECT_ID":"2020-038BA","MEAN_MOTION":"15.06407147","BSTAR":"0.00025477000000","MEAN_ELEMENT_THEORY":"SGP4"},{"EPOCH":"2021-12-28T22:09:50.271264","INCLINATION":"53.0512","RCS_SIZE":"LARGE","RA_OF_ASC_NODE":"232.9936","TLE_LINE1":"1 45779U 20038BB  21362.92349851  .00001165  00000-0  97126-4 0  9992","OBJECT_NAME":"STARLINK-1492","TIME_SYSTEM":"UTC","SEMIMAJOR_AXIS":"6925.339","TLE_LINE2":"2 45779  53.0512 232.9936 0001918  60.0755 300.0424 15.06402979 85870","NORAD_CAT_ID":"45779","OBJECT_TYPE":"PAYLOAD","REF_FRAME":"TEME","LAUNCH_DATE":"2020-06-13","PERIAPSIS":"545.876","MEAN_MOTION_DOT":"0.00001165","PERIOD":"95.592","REV_AT_EPOCH":"8587","MEAN_ANOMALY":"300.0424","BSTAR":"0.00009712600000","MEAN_ELEMENT_THEORY":"SGP4","OBJECT_ID":"2020-038BB","MEAN_MOTION":"15.06402979","ECCENTRICITY":"0.00019180","EPHEMERIS_TYPE":"0","APOAPSIS":"548.533","CENTER_NAME":"EARTH","GP_ID":"192673425","ELEMENT_SET_NO":"999","ARG_OF_PERICENTER":"60.0755","CLASSIFICATION_TYPE":"U","DECAY_DATE":null,"MEAN_MOTION_DDOT":"0.0000000000000","COUNTRY_CODE":"US","SITE":"AFETR","FILE":"3254265"},{"TLE_LINE1":"1 45780U 20038BC  21362.93454627  .00001629  00000-0  12826-3 0  9991","RA_OF_ASC_NODE":"232.9465","RCS_SIZE":"LARGE","OBJECT_NAME":"STARLINK-1496","TIME_SYSTEM":"UTC","TLE_LINE2":"2 45780  53.0536 232.9465 0001999  79.5177 280.6037 15.06402748 85874","SEMIMAJOR_AXIS":"6925.340","NORAD_CAT_ID":"45780","EPOCH":"2021-12-28T22:25:44.797728","INCLINATION":"53.0536","REV_AT_EPOCH":"8587","MEAN_ANOMALY":"280.6037","REF_FRAME":"TEME","OBJECT_TYPE":"PAYLOAD","LAUNCH_DATE":"2020-06-13","PERIAPSIS":"545.821","PERIOD":"95.592","MEAN_MOTION_DOT":"0.00001629","CENTER_NAME":"EARTH","APOAPSIS":"548.590","EPHEMERIS_TYPE":"0","GP_ID":"192672674","CLASSIFICATION_TYPE":"U","ARG_OF_PERICENTER":"79.5177","ELEMENT_SET_NO":"999","BSTAR":"0.00012826000000","MEAN_ELEMENT_THEORY":"SGP4","ECCENTRICITY":"0.00019990","MEAN_MOTION":"15.06402748","OBJECT_ID":"2020-038BC","COUNTRY_CODE":"US","SITE":"AFETR","FILE":"3254265","DECAY_DATE":null,"MEAN_MOTION_DDOT":"0.0000000000000"}];
